UNKNOWN                 
1 81036U          23027.57707960  .00000939  00000+0  20132-2 0  9993
2 81036  65.9795 172.5076 2685300  65.7203 319.9798  9.16995853305612
UNKNOWN                 
1 81052U          23023.69342213  .00004958  00000+0  16468-2 0  9998
2 81052  65.7779 128.9709 0624741  96.6285 270.6238 13.63616742455613
UNKNOWN                 
1 81069U          23026.49201999  .00003893  00000+0  61585-2 0  9999
2 81069 100.3212 228.5039 0063748  89.8462 270.9975 13.49539791373574
UNKNOWN                 
1 81073U          23008.64623694  .00051916  00000+0  50551-1 0  9990
2 81073  61.6486 121.8921 4694043 248.8261  55.9371  5.93082052537859
UNKNOWN                 
1 81078U          23024.24919421  .00000478  00000+0  15475-1 0  9998
2 81078  65.1097 125.5454 0196182 237.6815 146.6357 11.21959013376414
UNKNOWN                 
1 81111U          23027.54880203  .00035252  00000+0  41343-2 0  9999
2 81111  62.8259 228.7136 4269406 316.9034  16.6166  6.89520884195755
UNKNOWN                 
1 81123U 70025    23025.49065566  .00001421  00000+0  14603-2 0  9995
2 81123 100.0487  36.2325 0003066 257.3501 102.7305 13.78178402461163
UNKNOWN                 
1 81134U          23027.31645742  .00000309  00000+0  11160-2 0  9995
2 81134  90.2689 339.7282 0022411 257.8931 101.9676 12.92463269326894
UNKNOWN                 
1 81161U          23023.72894306  .00003271  00000+0  36237-2 0  9991
2 81161 100.3854 122.9124 0058520  67.4380 293.2942 13.71819943411417
UNKNOWN                 
1 81219U 81053    23027.45292750  .00000447  00000+0  41549-3 0  9996
2 81219  82.9250  73.7962 0019800 295.6509  64.2604 13.80058512462565
UNKNOWN                 
1 81221U          23024.62763120  .00004569  00000+0  20548-2 0  9996
2 81221  98.8861 329.5161 0110250 152.4267 208.2816 14.19618732374541
UNKNOWN                 
1 81228U          23026.79765589  .00007239  00000+0  31434-2 0  9997
2 81228  70.5319  76.5412 0083247 114.0081 246.9785 14.22598513475762
UNKNOWN                 
1 81247U 81053    23027.27379996  .00023494  00000+0  50454-2 0  9996
2 81247  83.2426  18.9649 0023337 245.9483 113.9278 14.58304667483683
UNKNOWN                 
1 81254U 70025    23027.60105802  .00003030  00000+0  22828-2 0  9999
2 81254 100.3708 303.1344 0076022 317.3345  42.1923 13.93837382466219
UNKNOWN                 
1 81264U          23023.35567787  .00012263  00000+0  21898-2 0  9992
2 81264  99.4314  68.7465 0094934 311.5282  47.7801 14.64197192454688
UNKNOWN                 
1 81279U          23025.58614300  .00003972  00000+0  16461-2 0  9996
2 81279  98.1318 159.3872 0221093 213.0110 145.7100 14.14713817313551
UNKNOWN                 
1 81301U          23027.14475854  .00000244  00000+0  31884-3 0  9991
2 81301  66.7593 282.8847 0093779 220.3954 291.5933 13.75671001461790
UNKNOWN                 
1 81311U 90105    23025.93563539  .00001205  00000+0  26571-3 0  9995
2 81311  98.8009  18.0066 0138742  86.2972 303.8029 14.53598379486636
UNKNOWN                 
1 81317U 80089    23024.23759458  .00000407  00000+0  79358-3 0  9994
2 81317  67.1392 334.7914 0210932  48.6650  18.2509 13.37284951447730
UNKNOWN                 
1 81323U          23027.30682874  .00004523  00000+0  94276-3 0  9993
2 81323  65.7785 352.4374 0475085 143.6530 219.7831 14.08282661963609
UNKNOWN                 
1 81329U          23027.29314535  .00001416  00000+0  56228-3 0  9996
2 81329  65.8280 356.9223 0864204 143.9415 340.4767 13.14110640477645
UNKNOWN                 
1 81341U          23025.41155553  .00003284  00000+0  82606-2 0  9998
2 81341  99.5016  96.3566 0437166   7.4078 353.3214 12.90408124387401
UNKNOWN                 
1 81342U          23024.61734084  .00004734  00000+0  26378-2 0  9997
2 81342  70.9013  11.3468 0151582 148.9921 212.0256 14.05774964469092
UNKNOWN                 
1 81343U          23027.46996859  .00004331  00000+0  47757-3 0  9992
2 81343  85.8790  32.4833 0013299  57.0318 303.2183 14.87215017297441
UNKNOWN                 
1 81357U          23027.58017679  .00023758  00000+0  18997-2 0  9991
2 81357  97.4541 260.5063 0170736 322.1336  36.7971 14.89392826379040
UNKNOWN                 
1 81359U          23026.44615119  .00001349  00000+0  13881-2 0  9999
2 81359  66.8008  41.7160 0124074 318.9114  40.2662 13.75854413460708
UNKNOWN                 
1 81366U          23023.44166510  .00002391  00000+0  83611-3 0  9997
2 81366  65.8855  36.7271 0747892 227.8806 125.6322 13.39893413924683
UNKNOWN                 
1 81371U          23027.27572543  .00003980  00000+0  80961-3 0  9995
2 81371  98.9029  33.1980 0085356   3.6408 356.5393 14.59425508488097
UNKNOWN                 
1 81374U          23027.21191908  .00012424  00000+0  37973-2 0  9991
2 81374  65.7286 316.4578 0046077 338.3191  21.5952 14.41437850432409
UNKNOWN                 
1 81380U          23027.35039853  .00015932  00000+0  44128-2 0  9990
2 81380  99.8548 346.0887 0001283 230.3498 129.7576 14.46699442466668
UNKNOWN                 
1 81386U          23026.80618828  .00006015  00000+0  26901-2 0  9991
2 81386  71.0556  81.5171 0122987 284.7540  73.9983 14.19024992474335
UNKNOWN                 
1 81390U          23026.31890105  .00000461  00000+0  38667-2 0  9993
2 81390 103.1206 193.0466 0181592 183.5133 176.4657 12.34915689370256
UNKNOWN                 
1 81391U          23025.98101685  .00008637  00000+0  36487-2 0  9995
2 81391  81.2038 284.8096 0012473 292.2094  67.7762 14.25458794430986
UNKNOWN                 
1 81392U          23026.93699676  .00003335  00000+0  38132-2 0  9993
2 81392 100.4146 267.5339 0041333 174.2041 200.2478 13.70275743457692
UNKNOWN                 
1 81402U          23025.81910850  .00013446  00000+0  48362-2 0  9991
2 81402  98.6991  59.4450 0004950 287.3527  72.7115 14.33860392295286
UNKNOWN                 
1 81405U          23018.80808304  .00002143  00000+0  17679-2 0  9994
2 81405  99.5503  38.9368 0168579 158.9464 201.8738 13.83854176415073
UNKNOWN                 
1 81406U          23024.18928375  .00002517  00000+0  11285-2 0  9996
2 81406  65.8161 352.6752 0878813  65.0074 303.9596 13.05754578395798
UNKNOWN                 
1 81409U 87068    23027.36819630  .00016728  00000+0  54542-2 0  9996
2 81409  82.6624   4.9119 0059631  31.0888 329.3808 14.37552207478264
UNKNOWN                 
1 81418U          23025.66996354  .00001935  00000+0  38260-2 0  9990
2 81418 100.2928 174.2976 0059750 281.1036  78.3373 13.36074561258528
UNKNOWN                 
1 81425U          23027.20454041  .00002302  00000+0  26958-2 0  9992
2 81425  99.4570 114.5346 0079925 291.7024  67.5626 13.68077572298048
UNKNOWN                 
1 81427U          23026.68322325  .00000663  00000+0  43140-3 0  9995
2 81427  98.8506 288.3250 0088206 105.6872 255.4047 14.03921932404134
UNKNOWN                 
1 81438U          23023.23740777  .00003171  00000+0  52372-2 0  9993
2 81438 100.3058 207.4049 0050731 130.6184 229.9375 13.47270481449560
UNKNOWN                 
1 81439U          23027.34842677  .00000222  00000+0  77034-3 0  9999
2 81439  67.1626  10.9745 0599469 130.5355 234.9482 12.61588934129343
UNKNOWN                 
1 81449U 85042    23027.26373481  .00008275  00000+0  26236-2 0  9995
2 81449  66.8088 346.0981 0049479 236.7379 122.8980 14.39729092480171
UNKNOWN                 
1 81478U          23026.15601241  .00003184  00000+0  14135-2 0  9992
2 81478  99.0272 267.9239 0168975 134.2051  16.6513 14.16381796473506
UNKNOWN                 
1 81488U 75052    23026.39999023  .00000272  00000+0  45470-3 0  9998
2 81488 100.1215 226.0782 0045038  83.1051  35.8415 13.55667175454135
UNKNOWN                 
1 81497U          23027.21754722  .00004706  00000+0  53910-2 0  9999
2 81497 100.3142 181.9621 0032973 170.1154   6.1763 13.70001943 71709
UNKNOWN                 
1 81499U          23026.35393958  .00003777  00000+0  12656-2 0  9994
2 81499  74.0558   8.7148 0005007 288.9063  71.1548 14.37651385330856
UNKNOWN                 
1 81509U          23012.02501827  .01161582  00000+0  43967-1 0  9999
2 81509  98.6867 221.5884 0014379 329.1472  30.8915 15.24126058310296
UNKNOWN                 
1 81521U          23027.14835090  .00069446  00000+0  94265-2 0  9997
2 81521  99.6854 269.5143 0017937  20.2258 131.5144 14.78383817487576
UNKNOWN                 
1 81535U          23027.38805177  .00001243  00000+0  56622-3 0  9998
2 81535  98.1246 190.9263 0249177 297.4003  60.2019 14.08200901239297
UNKNOWN                 
1 81536U 73086    23026.75404251  .00000579  00000+0  38836-2 0  9998
2 81536 102.0448 222.0166 0018208 138.3624 283.9152 12.54318362419963
UNKNOWN                 
1 81537U 93016    23026.00633673  .00000657  00000+0  41772-3 0  9995
2 81537  71.0405 122.8208 0080937 295.1363  64.1374 14.05855812472582
UNKNOWN                 
1 81546U          23016.13757109  .00090175  00000+0  65226-2 0  9993
2 81546  66.8027 322.9382 0012235 116.5034 243.7358 15.03419960971835
UNKNOWN                 
1 81552U          23026.39038869  .00000759  00000+0  17476-2 0  9997
2 81552  99.0636  91.1637 0266073  17.1235 343.8652 13.15998205440851
UNKNOWN                 
1 81569U          23026.17669892  .00000388  00000+0  18455-2 0  9993
2 81569  28.0775 331.3183 0312966 321.0766  36.7600 12.46221426421542
UNKNOWN                 
1 81579U          23027.26849418  .00014864  00000+0  79939-2 0  9997
2 81579 100.0184  50.4092 0208646 133.6759 228.1908 14.02457125464090
UNKNOWN                 
1 81599U          23025.44980961 -.00000019  00000+0  76959-4 0  9995
2 81599  67.2982  33.3556 0247450 119.3953  29.1469 13.29490091445097
UNKNOWN                 
1 81605U          23026.03347931  .00002146  00000+0  97336-2 0  9995
2 81605  56.4315 303.8475 0130333 152.4054 208.3867 12.78428965 51563
UNKNOWN                 
1 81614U 76077    23027.47671078  .00004542  00000+0  31951-1 0  9995
2 81614 101.8913  57.6416 0418889 269.9376  85.3691 12.23482354408844
